COMMENT,ORIGINATOR,NORAD_CAT_ID,OBJECT_NAME,OBJECT_TYPE,CLASSIFICATION_TYPE,INTLDES,EPOCH,EPOCH_MICROSECONDS,MEAN_MOTION,ECCENTRICITY,INCLINATION,RA_OF_ASC_NODE,ARG_OF_PERICENTER,MEAN_ANOMALY,EPHEMERIS_TYPE,ELEMENT_SET_NO,REV_AT_EPOCH,BSTAR,MEAN_MOTION_DOT,MEAN_MOTION_DDOT,FILE,TLE_LINE0,TLE_LINE1,TLE_LINE2,OBJECT_ID,OBJECT_NUMBER,SEMIMAJOR_AXIS,PERIOD,APOGEE,PERIGEE,DECAYED
GENERATED VIA SPACETRACK.ORG API,18 SPCS,38778,ASTRA 2F,PAYLOAD,U,12051A,2024-09-02 20:41:00,524832,1.00273544,0.0004033,0.0794,257.7109,304.4812,118.7366,0,999,3458,0,1.4e-06,0,4469143,0 ASTRA 2F,1 38778U 12051A   24246.86181163  .00000140  00000-0  00000-0 0  9999,2 38778   0.0794 257.7109 0004033 304.4812 118.7366  1.00273544 34586,2012-051A,38778,42164.239,1436.072,35803.109,35769.099,0
GENERATED VIA SPACETRACK.ORG API,18 SPCS,38778,ASTRA 2F,PAYLOAD,U,12051A,2024-09-03 03:34:24,399264,1.0027369,0.0004032,0.0787,257.5923,304.63,222.3408,0,999,4375,0,1.41e-06,0,4469631,0 ASTRA 2F,1 38778U 12051A   24247.14889351  .00000141  00000-0  00000+0 0  9995,2 38778   0.0787 257.5923 0004032 304.6300 222.3408  1.00273690 43753,2012-051A,38778,42164.198,1436.07,35803.064,35769.062,0
GENERATED VIA SPACETRACK.ORG API,18 SPCS,38778,ASTRA 2F,PAYLOAD,U,12051A,2024-09-03 05:17:26,480832,1.00273725,0.0004035,0.0786,257.4971,304.775,248.1207,0,999,3458,0,1.41e-06,0,4470264,0 ASTRA 2F,1 38778U 12051A   24247.22044538  .00000141  00000-0  00000-0 0  9995,2 38778   0.0786 257.4971 0004035 304.7750 248.1207  1.00273725 34580,2012-051A,38778,42164.188,1436.069,35803.066,35769.04,0
GENERATED VIA SPACETRACK.ORG API,18 SPCS,38778,ASTRA 2F,PAYLOAD,U,12051A,2024-09-04 07:20:42,524736,1.00275106,0.0004295,0.0997,260.7603,300.8186,280.7163,0,999,3460,0,1.45e-06,0,4471112,0 ASTRA 2F,1 38778U 12051A   24248.30604774  .00000145  00000-0  00000-0 0  9993,2 38778   0.0997 260.7603 0004295 300.8186 280.7163  1.00275106 34602,2012-051A,38778,42163.801,1436.049,35803.775,35767.557,0
GENERATED VIA SPACETRACK.ORG API,18 SPCS,38778,ASTRA 2F,PAYLOAD,U,12051A,2024-09-04 17:57:06,95808,1.00275418,0.0004319,0.0987,260.5895,301.1371,80.1081,0,999,3461,0,1.47e-06,0,4472160,0 ASTRA 2F,1 38778U 12051A   24248.74798722  .00000147  00000-0  00000-0 0  9990,2 38778   0.0987 260.5895 0004319 301.1371  80.1081  1.00275418 34617,2012-051A,38778,42163.714,1436.045,35803.789,35767.368,0
GENERATED VIA SPACETRACK.ORG API,18 SPCS,38778,ASTRA 2F,PAYLOAD,U,12051A,2024-09-05 06:03:42,719328,1.00275897,0.0004308,0.0976,260.3265,302.0703,261.5954,0,999,3461,0,1.49e-06,0,4472882,0 ASTRA 2F,1 38778U 12051A   24249.25257777  .00000149  00000-0  00000-0 0  9999,2 38778   0.0976 260.3265 0004308 302.0703 261.5954  1.00275897 34616,2012-051A,38778,42163.579,1436.038,35803.608,35767.28,0
GENERATED VIA SPACETRACK.ORG API,18 SPCS,38778,ASTRA 2F,PAYLOAD,U,12051A,2024-09-05 08:58:42,711744,1.00275849,0.0004329,0.0974,260.2534,302.5231,305.087,0,999,4377,0,1.5e-06,0,4473311,0 ASTRA 2F,1 38778U 12051A   24249.37410546  .00000150  00000-0  00000+0 0  9998,2 38778   0.0974 260.2534 0004329 302.5231 305.0870  1.00275849 43771,2012-051A,38778,42163.593,1436.039,35803.71,35767.205,0
GENERATED VIA SPACETRACK.ORG API,18 SPCS,38778,ASTRA 2F,PAYLOAD,U,12051A,2024-09-05 08:58:42,711744,1.00275849,0.0004329,0.0974,260.2534,302.5231,305.087,0,999,3462,0,1.5e-06,0,4474121,0 ASTRA 2F,1 38778U 12051A   24249.37410546  .00000150  00000-0  00000-0 0  9999,2 38778   0.0974 260.2534 0004329 302.5231 305.0870  1.00275849 34625,2012-051A,38778,42163.593,1436.039,35803.71,35767.205,0
GENERATED VIA SPACETRACK.ORG API,18 SPCS,38778,ASTRA 2F,PAYLOAD,U,12051A,2024-09-06 07:36:42,775200,1.00273058,0.0003802,0.095,260.2708,293.423,294.5849,0,999,4378,0,1.53e-06,0,4474544,0 ASTRA 2F,1 38778U 12051A   24250.31716175  .00000153  00000-0  00000+0 0  9994,2 38778   0.0950 260.2708 0003802 293.4230 294.5849  1.00273058 43789,2012-051A,38778,42164.375,1436.079,35802.271,35770.209,0
GENERATED VIA SPACETRACK.ORG API,18 SPCS,38778,ASTRA 2F,PAYLOAD,U,12051A,2024-09-06 07:36:42,775200,1.00273058,0.0003802,0.095,260.2708,293.423,294.5849,0,999,3463,0,1.53e-06,0,4474805,0 ASTRA 2F,1 38778U 12051A   24250.31716175  .00000153  00000-0  00000-0 0  9995,2 38778   0.0950 260.2708 0003802 293.4230 294.5849  1.00273058 34633,2012-051A,38778,42164.375,1436.079,35802.271,35770.209,0
GENERATED VIA SPACETRACK.ORG API,18 SPCS,38778,ASTRA 2F,PAYLOAD,U,12051A,2024-09-06 20:32:42,734688,1.00269997,0.0003622,0.0937,259.7371,295.9165,127.1479,0,999,4379,0,1.54e-06,0,4475156,0 ASTRA 2F,1 38778U 12051A   24250.85605017  .00000154  00000-0  00000+0 0  9996,2 38778   0.0937 259.7371 0003622 295.9165 127.1479  1.00269997 43795,2012-051A,38778,42165.233,1436.123,35802.37,35771.826,0
GENERATED VIA SPACETRACK.ORG API,18 SPCS,38778,ASTRA 2F,PAYLOAD,U,12051A,2024-09-07 05:59:42,775296,1.00270067,0.0003691,0.0926,259.4787,295.8312,269.6273,0,999,3463,0,1.55e-06,0,4476648,0 ASTRA 2F,1 38778U 12051A   24251.24980064  .00000155  00000-0  00000-0 0  9990,2 38778   0.0926 259.4787 0003691 295.8312 269.6273  1.00270067 34637,2012-051A,38778,42165.214,1436.122,35802.642,35771.515,0
GENERATED VIA SPACETRACK.ORG API,18 SPCS,38778,ASTRA 2F,PAYLOAD,U,12051A,2024-09-07 20:56:10,349664,1.00270287,0.0003711,0.0912,259.1666,297.0264,133.4689,0,999,4380,0,1.56e-06,0,4477163,0 ASTRA 2F,1 38778U 12051A   24251.87234201  .00000156  00000-0  00000+0 0  9994,2 38778   0.0912 259.1666 0003711 297.0264 133.4689  1.00270287 43800,2012-051A,38778,42165.152,1436.118,35802.664,35771.369,0
GENERATED VIA SPACETRACK.ORG API,18 SPCS,38778,ASTRA 2F,PAYLOAD,U,12051A,2024-09-07 20:56:10,349664,1.00270287,0.0003711,0.0912,259.1666,297.0264,133.4689,0,999,3464,0,1.56e-06,0,4477330,0 ASTRA 2F,1 38778U 12051A   24251.87234201  .00000156  00000-0  00000-0 0  9995,2 38778   0.0912 259.1666 0003711 297.0264 133.4689  1.00270287 34642,2012-051A,38778,42165.152,1436.118,35802.664,35771.369,0
GENERATED VIA SPACETRACK.ORG API,18 SPCS,38778,ASTRA 2F,PAYLOAD,U,12051A,2024-09-08 12:19:13,342368,1.00270647,0.0003719,0.0896,258.9298,296.9937,5.13,0,999,3465,0,1.57e-06,0,4478647,0 ASTRA 2F,1 38778U 12051A   24252.51334887  .00000157  00000-0  00000-0 0  9999,2 38778   0.0896 258.9298 0003719 296.9937   5.1300  1.00270647 34650,2012-051A,38778,42165.051,1436.113,35802.597,35771.235,0
GENERATED VIA SPACETRACK.ORG API,18 SPCS,38778,ASTRA 2F,PAYLOAD,U,12051A,2024-09-08 20:57:42,726816,1.00270874,0.000369,0.0888,258.7271,296.6612,135.6417,0,999,3465,0,1.57e-06,0,4479279,0 ASTRA 2F,1 38778U 12051A   24252.87341119  .00000157  00000-0  00000-0 0  9994,2 38778   0.0888 258.7271 0003690 296.6612 135.6417  1.00270874 34655,2012-051A,38778,42164.987,1436.11,35802.411,35771.293,0
GENERATED VIA SPACETRACK.ORG API,18 SPCS,38778,ASTRA 2F,PAYLOAD,U,12051A,2024-09-09 03:07:42,755808,1.0027083,0.0003767,0.0881,258.6441,297.6565,227.4813,0,999,4381,0,1.57e-06,0,4479803,0 ASTRA 2F,1 38778U 12051A   24253.13035597  .00000157  00000-0  00000+0 0  9993,2 38778   0.0881 258.6441 0003767 297.6565 227.4813  1.00270830 43819,2012-051A,38778,42165.0,1436.111,35802.748,35770.981,0
GENERATED VIA SPACETRACK.ORG API,18 SPCS,38778,ASTRA 2F,PAYLOAD,U,12051A,2024-09-09 08:19:42,606624,1.00271011,0.0003747,0.0876,258.5039,297.7161,305.7747,0,999,3466,0,1.57e-06,0,4480636,0 ASTRA 2F,1 38778U 12051A   24253.34702091  .00000157  00000-0  00000-0 0  9997,2 38778   0.0876 258.5039 0003747 297.7161 305.7747  1.00271011 34667,2012-051A,38778,42164.949,1436.108,35802.613,35771.015,0
GENERATED VIA SPACETRACK.ORG API,18 SPCS,38778,ASTRA 2F,PAYLOAD,U,12051A,2024-09-09 20:49:42,431808,1.00271197,0.000376,0.0863,258.3012,298.3947,133.3102,0,999,3466,0,1.57e-06,0,4481180,0 ASTRA 2F,1 38778U 12051A   24253.86785222  .00000157  00000-0  00000-0 0  9991,2 38778   0.0863 258.3012 0003760 298.3947 133.3102  1.00271197 34661,2012-051A,38778,42164.897,1436.105,35802.616,35770.908,0
GENERATED VIA SPACETRACK.ORG API,18 SPCS,38778,ASTRA 2F,PAYLOAD,U,12051A,2024-09-10 07:14:04,237152,1.00271371,0.0003782,0.0853,258.1161,298.6627,289.7449,0,999,4382,0,1.56e-06,0,4482349,0 ASTRA 2F,1 38778U 12051A   24254.30143793  .00000156  00000-0  00000+0 0  9990,2 38778   0.0853 258.1161 0003782 298.6627 289.7449  1.00271371 43827,2012-051A,38778,42164.848,1436.103,35802.66,35770.766,0
GENERATED VIA SPACETRACK.ORG API,18 SPCS,38778,ASTRA 2F,PAYLOAD,U,12051A,2024-09-10 19:15:02,722176,1.00271557,0.000379,0.0841,257.8866,299.2295,110.1442,0,999,3467,0,1.56e-06,0,4483177,0 ASTRA 2F,1 38778U 12051A   24254.80211484  .00000156  00000-0  00000-0 0  9999,2 38778   0.0841 257.8866 0003790 299.2295 110.1442  1.00271557 34678,2012-051A,38778,42164.796,1436.1,35802.641,35770.68,0
GENERATED VIA SPACETRACK.ORG API,18 SPCS,38778,ASTRA 2F,PAYLOAD,U,12051A,2024-09-11 00:23:56,172768,1.00271638,0.0003802,0.0836,257.8616,299.4167,187.4163,0,999,3467,0,1.55e-06,0,4484570,0 ASTRA 2F,1 38778U 12051A   24255.01662237  .00000155  00000-0  00000-0 0  9998,2 38778   0.0836 257.8616 0003802 299.4167 187.4163  1.00271638 34676,2012-051A,38778,42164.773,1436.099,35802.669,35770.607,0
GENERATED VIA SPACETRACK.ORG API,18 SPCS,38778,ASTRA 2F,PAYLOAD,U,12051A,2024-09-11 17:33:52,949376,1.00271888,0.0003831,0.0819,257.4248,300.3888,85.0725,0,999,4383,0,1.54e-06,0,4484972,0 ASTRA 2F,1 38778U 12051A   24255.73186284  .00000154  00000-0  00000+0 0  9998,2 38778   0.0819 257.4248 0003831 300.3888  85.0725  1.00271888 43830,2012-051A,38778,42164.703,1436.095,35802.721,35770.415,0
GENERATED VIA SPACETRACK.ORG API,18 SPCS,38778,ASTRA 2F,PAYLOAD,U,12051A,2024-09-11 17:33:52,949376,1.00271888,0.0003831,0.0819,257.4248,300.3888,85.0725,0,999,3468,0,1.53e-06,0,4485202,0 ASTRA 2F,1 38778U 12051A   24255.73186284  .00000153  00000-0  00000-0 0  9998,2 38778   0.0819 257.4248 0003831 300.3888  85.0725  1.00271888 34683,2012-051A,38778,42164.703,1436.095,35802.721,35770.415,0
